CCSDS_OMM_VERS = 2.0
CREATION_DATE  = 
ORIGINATOR     = 

OBJECT_NAME    = STARLINK-36808
OBJECT_ID      = 2026-035C
CENTER_NAME    = EARTH
REF_FRAME      = TEME
TIME_SYSTEM    = UTC
MEAN_ELEMENT_THEORY = SGP/SGP4

EPOCH          = 2026-03-18T06:13:58.440288
MEAN_MOTION    = 15.81014307
ECCENTRICITY   = .00023108
INCLINATION    = 97.2871
RA_OF_ASC_NODE = 10.0929
ARG_OF_PERICENTER = 36.2392
MEAN_ANOMALY   = 323.9032

EPHEMERIS_TYPE = 0
CLASSIFICATION_TYPE = U
NORAD_CAT_ID   = 67881
ELEMENT_SET_NO = 999
REV_AT_EPOCH   = 519
BSTAR          = .23379346E-2
MEAN_MOTION_DOT = .477368E-2
MEAN_MOTION_DDOT = 0

CCSDS_OMM_VERS = 2.0
CREATION_DATE  = 
ORIGINATOR     = 

OBJECT_NAME    = STARLINK-36817
OBJECT_ID      = 2026-035D
CENTER_NAME    = EARTH
REF_FRAME      = TEME
TIME_SYSTEM    = UTC
MEAN_ELEMENT_THEORY = SGP/SGP4

EPOCH          = 2026-03-18T06:10:42.889440
MEAN_MOTION    = 15.80942984
ECCENTRICITY   = .00006381
INCLINATION    = 97.2888
RA_OF_ASC_NODE = 10.0948
ARG_OF_PERICENTER = 95.2588
MEAN_ANOMALY   = 264.8753

EPHEMERIS_TYPE = 0
CLASSIFICATION_TYPE = U
NORAD_CAT_ID   = 67882
ELEMENT_SET_NO = 999
REV_AT_EPOCH   = 519
BSTAR          = .18222561E-2
MEAN_MOTION_DOT = .366097E-2
MEAN_MOTION_DDOT = 0

CCSDS_OMM_VERS = 2.0
CREATION_DATE  = 
ORIGINATOR     = 

OBJECT_NAME    = STARLINK-36856
OBJECT_ID      = 2026-035E
CENTER_NAME    = EARTH
REF_FRAME      = TEME
TIME_SYSTEM    = UTC
MEAN_ELEMENT_THEORY = SGP/SGP4

EPOCH          = 2026-03-18T06:11:47.306688
MEAN_MOTION    = 15.80951686
ECCENTRICITY   = .00008868
INCLINATION    = 97.2876
RA_OF_ASC_NODE = 10.0944
ARG_OF_PERICENTER = 270.3361
MEAN_ANOMALY   = 89.7805

EPHEMERIS_TYPE = 0
CLASSIFICATION_TYPE = U
NORAD_CAT_ID   = 67883
ELEMENT_SET_NO = 999
REV_AT_EPOCH   = 519
BSTAR          = .15326441E-2
MEAN_MOTION_DOT = .305855E-2
MEAN_MOTION_DDOT = 0

CCSDS_OMM_VERS = 2.0
CREATION_DATE  = 
ORIGINATOR     = 

OBJECT_NAME    = STARLINK-36842
OBJECT_ID      = 2026-035F
CENTER_NAME    = EARTH
REF_FRAME      = TEME
TIME_SYSTEM    = UTC
MEAN_ELEMENT_THEORY = SGP/SGP4

EPOCH          = 2026-03-18T06:00:02.000160
MEAN_MOTION    = 15.75104224
ECCENTRICITY   = .00013577
INCLINATION    = 97.2866
RA_OF_ASC_NODE = 10.0626
ARG_OF_PERICENTER = 105.6373
MEAN_ANOMALY   = 146.5961

EPHEMERIS_TYPE = 0
CLASSIFICATION_TYPE = U
NORAD_CAT_ID   = 67884
ELEMENT_SET_NO = 999
REV_AT_EPOCH   = 513
BSTAR          = .72025293E-3
MEAN_MOTION_DOT = .10827E-2
MEAN_MOTION_DDOT = 0

CCSDS_OMM_VERS = 2.0
CREATION_DATE  = 
ORIGINATOR     = 

OBJECT_NAME    = STARLINK-36826
OBJECT_ID      = 2026-035G
CENTER_NAME    = EARTH
REF_FRAME      = TEME
TIME_SYSTEM    = UTC
MEAN_ELEMENT_THEORY = SGP/SGP4

EPOCH          = 2026-03-18T06:00:02.000160
MEAN_MOTION    = 15.75242844
ECCENTRICITY   = .00010301
INCLINATION    = 97.2857
RA_OF_ASC_NODE = 10.0837
ARG_OF_PERICENTER = 104.8114
MEAN_ANOMALY   = 197.3254

EPHEMERIS_TYPE = 0
CLASSIFICATION_TYPE = U
NORAD_CAT_ID   = 67885
ELEMENT_SET_NO = 999
REV_AT_EPOCH   = 513
BSTAR          = -.38304837E-3
MEAN_MOTION_DOT = -.57012E-3
MEAN_MOTION_DDOT = 0

CCSDS_OMM_VERS = 2.0
CREATION_DATE  = 
ORIGINATOR     = 

OBJECT_NAME    = STARLINK-36390
OBJECT_ID      = 2026-035H
CENTER_NAME    = EARTH
REF_FRAME      = TEME
TIME_SYSTEM    = UTC
MEAN_ELEMENT_THEORY = SGP/SGP4

EPOCH          = 2026-03-18T06:00:02.000160
MEAN_MOTION    = 15.75178627
ECCENTRICITY   = .00012871
INCLINATION    = 97.2863
RA_OF_ASC_NODE = 10.0675
ARG_OF_PERICENTER = 115.8838
MEAN_ANOMALY   = 148.2812

EPHEMERIS_TYPE = 0
CLASSIFICATION_TYPE = U
NORAD_CAT_ID   = 67886
ELEMENT_SET_NO = 999
REV_AT_EPOCH   = 518
BSTAR          = .28412533E-3
MEAN_MOTION_DOT = .42439E-3
MEAN_MOTION_DDOT = 0

CCSDS_OMM_VERS = 2.0
CREATION_DATE  = 
ORIGINATOR     = 

OBJECT_NAME    = STARLINK-36368
OBJECT_ID      = 2026-035J
CENTER_NAME    = EARTH
REF_FRAME      = TEME
TIME_SYSTEM    = UTC
MEAN_ELEMENT_THEORY = SGP/SGP4

EPOCH          = 2026-03-18T01:32:55.365216
MEAN_MOTION    = 15.80930181
ECCENTRICITY   = .00018651
INCLINATION    = 97.2908
RA_OF_ASC_NODE = 9.8971
ARG_OF_PERICENTER = 100.6805
MEAN_ANOMALY   = 259.4673

EPHEMERIS_TYPE = 0
CLASSIFICATION_TYPE = U
NORAD_CAT_ID   = 67887
ELEMENT_SET_NO = 999
REV_AT_EPOCH   = 516
BSTAR          = .14625131E-2
MEAN_MOTION_DOT = .291064E-2
MEAN_MOTION_DDOT = 0

CCSDS_OMM_VERS = 2.0
CREATION_DATE  = 
ORIGINATOR     = 

OBJECT_NAME    = STARLINK-36801
OBJECT_ID      = 2026-035K
CENTER_NAME    = EARTH
REF_FRAME      = TEME
TIME_SYSTEM    = UTC
MEAN_ELEMENT_THEORY = SGP/SGP4

EPOCH          = 2026-03-18T01:31:50.788128
MEAN_MOTION    = 15.80881486
ECCENTRICITY   = .00012758
INCLINATION    = 97.2880
RA_OF_ASC_NODE = 9.8976
ARG_OF_PERICENTER = 124.6352
MEAN_ANOMALY   = 235.5037

EPHEMERIS_TYPE = 0
CLASSIFICATION_TYPE = U
NORAD_CAT_ID   = 67888
ELEMENT_SET_NO = 999
REV_AT_EPOCH   = 516
BSTAR          = .13191586E-2
MEAN_MOTION_DOT = .261026E-2
MEAN_MOTION_DDOT = 0

CCSDS_OMM_VERS = 2.0
CREATION_DATE  = 
ORIGINATOR     = 

OBJECT_NAME    = STARLINK-36372
OBJECT_ID      = 2026-035L
CENTER_NAME    = EARTH
REF_FRAME      = TEME
TIME_SYSTEM    = UTC
MEAN_ELEMENT_THEORY = SGP/SGP4

EPOCH          = 2026-03-18T01:29:41.493984
MEAN_MOTION    = 15.80901911
ECCENTRICITY   = .00018006
INCLINATION    = 97.2897
RA_OF_ASC_NODE = 9.8984
ARG_OF_PERICENTER = 113.5955
MEAN_ANOMALY   = 246.5503

EPHEMERIS_TYPE = 0
CLASSIFICATION_TYPE = U
NORAD_CAT_ID   = 67889
ELEMENT_SET_NO = 999
REV_AT_EPOCH   = 516
BSTAR          = .13605386E-2
MEAN_MOTION_DOT = .269744E-2
MEAN_MOTION_DDOT = 0

CCSDS_OMM_VERS = 2.0
CREATION_DATE  = 
ORIGINATOR     = 

OBJECT_NAME    = STARLINK-36363
OBJECT_ID      = 2026-035M
CENTER_NAME    = EARTH
REF_FRAME      = TEME
TIME_SYSTEM    = UTC
MEAN_ELEMENT_THEORY = SGP/SGP4

EPOCH          = 2026-03-18T06:00:02.000160
MEAN_MOTION    = 15.75179778
ECCENTRICITY   = .00011591
INCLINATION    = 97.2867
RA_OF_ASC_NODE = 10.0757
ARG_OF_PERICENTER = 101.3082
MEAN_ANOMALY   = 182.8571

EPHEMERIS_TYPE = 0
CLASSIFICATION_TYPE = U
NORAD_CAT_ID   = 67890
ELEMENT_SET_NO = 999
REV_AT_EPOCH   = 513
BSTAR          = .21667332E-3
MEAN_MOTION_DOT = .32296E-3
MEAN_MOTION_DDOT = 0

CCSDS_OMM_VERS = 2.0
CREATION_DATE  = 
ORIGINATOR     = 

OBJECT_NAME    = STARLINK-36816
OBJECT_ID      = 2026-035N
CENTER_NAME    = EARTH
REF_FRAME      = TEME
TIME_SYSTEM    = UTC
MEAN_ELEMENT_THEORY = SGP/SGP4

EPOCH          = 2026-03-18T07:20:13.912512
MEAN_MOTION    = 15.80897287
ECCENTRICITY   = .00013777
INCLINATION    = 97.2914
RA_OF_ASC_NODE = 10.1772
ARG_OF_PERICENTER = 74.7668
MEAN_ANOMALY   = 285.3752

EPHEMERIS_TYPE = 0
CLASSIFICATION_TYPE = U
NORAD_CAT_ID   = 67891
ELEMENT_SET_NO = 999
REV_AT_EPOCH   = 520
BSTAR          = .15387331E-2
MEAN_MOTION_DOT = .306322E-2
MEAN_MOTION_DDOT = 0

CCSDS_OMM_VERS = 2.0
CREATION_DATE  = 
ORIGINATOR     = 

OBJECT_NAME    = STARLINK-36813
OBJECT_ID      = 2026-035P
CENTER_NAME    = EARTH
REF_FRAME      = TEME
TIME_SYSTEM    = UTC
MEAN_ELEMENT_THEORY = SGP/SGP4

EPOCH          = 2026-03-18T07:26:43.357056
MEAN_MOTION    = 15.80904231
ECCENTRICITY   = .00011127
INCLINATION    = 97.2910
RA_OF_ASC_NODE = 10.1693
ARG_OF_PERICENTER = 88.0355
MEAN_ANOMALY   = 272.1041

EPHEMERIS_TYPE = 0
CLASSIFICATION_TYPE = U
NORAD_CAT_ID   = 67892
ELEMENT_SET_NO = 999
REV_AT_EPOCH   = 520
BSTAR          = .17865679E-2
MEAN_MOTION_DOT = .357939E-2
MEAN_MOTION_DDOT = 0

