STARLINK-36808          
1 67881U 26035C   26077.25970417  .00477368  00000+0  23379-2 0  9993
2 67881  97.2871  10.0929 0002310  36.2392 323.9032 15.81014307  5195
STARLINK-36817          
1 67882U 26035D   26077.25744085  .00366097  00000+0  18223-2 0  9992
2 67882  97.2888  10.0948 0000638  95.2588 264.8753 15.80942984  5191
STARLINK-36856          
1 67883U 26035E   26077.25818642  .00305855  00000+0  15326-2 0  9990
2 67883  97.2876  10.0944 0000886 270.3361  89.7805 15.80951686  5196
STARLINK-36842          
1 67884U 26035F   26077.25002315  .00108270  00000+0  72025-3 0  9995
2 67884  97.2866  10.0626 0001357 105.6373 146.5961 15.75104224  5131
STARLINK-36826          
1 67885U 26035G   26077.25002315 -.00057012  00000+0 -38305-3 0  9998
2 67885  97.2857  10.0837 0001030 104.8114 197.3254 15.75242844  5138
STARLINK-36390          
1 67886U 26035H   26077.25002315  .00042439  00000+0  28413-3 0  9993
2 67886  97.2863  10.0675 0001287 115.8838 148.2812 15.75178627  5182
STARLINK-36368          
1 67887U 26035J   26077.06452969  .00291064  00000+0  14625-2 0  9996
2 67887  97.2908   9.8971 0001865 100.6805 259.4673 15.80930181  5161
STARLINK-36801          
1 67888U 26035K   26077.06378227  .00261026  00000+0  13192-2 0  9994
2 67888  97.2880   9.8976 0001275 124.6352 235.5037 15.80881486  5166
STARLINK-36372          
1 67889U 26035L   26077.06228581  .00269744  00000+0  13605-2 0  9996
2 67889  97.2897   9.8984 0001800 113.5955 246.5503 15.80901911  5160
STARLINK-36363          
1 67890U 26035M   26077.25002315  .00032296  00000+0  21667-3 0  9992
2 67890  97.2867  10.0757 0001159 101.3082 182.8571 15.75179778  5130
STARLINK-36816          
1 67891U 26035N   26077.30571658  .00306322  00000+0  15387-2 0  9995
2 67891  97.2914  10.1772 0001377  74.7668 285.3752 15.80897287  5203
STARLINK-36813          
1 67892U 26035P   26077.31022404  .00357939  00000+0  17866-2 0  9991
2 67892  97.2910  10.1693 0001112  88.0355 272.1041 15.80904231  5203
